{"type": "FeatureCollection", "features": [ {"type": "Feature", "properties": {"norad_id": 66911, "name": "1998-067XX", "group": "stations", "lat": 51.5509220035017, "lon": -146.96852503646173, "alt_km": 404.15729481563085, "timestamp": "2025-12-17T09:00:15.913177+00:00", "meta": {"OBJECT_NAME": "1998-067XX", "OBJECT_ID": "1998-067XX", "EPOCH": "2025-12-16T21:47:43.238976", "MEAN_MOTION": 15.52613586, "ECCENTRICITY": 0.00043348, "INCLINATION": 51.6301, "RA_OF_ASC_NODE": 121.625, "ARG_OF_PERICENTER": 233.1446, "MEAN_ANOMALY": 126.9147, "EPHEMERIS_TYPE": 0, "CLASSIFICATION_TYPE": "U", "NORAD_CAT_ID": 66911, "ELEMENT_SET_NO": 999, "REV_AT_EPOCH": 225, "BSTAR": 0.0010270011, "MEAN_MOTION_DOT": 0.00064419, "MEAN_MOTION_DDOT": 0}, "tle": {"line1": "1 66911U 98067XX  25350.90813934  .00064419  00000+0  10270-2 0  9990", "line2": "2 66911  51.6301 121.6250 0004334 233.1446 126.9147 15.52613586  2256"}}, "geometry": {"type": "Point", "coordinates": [-146.96852503646173, 51.5509220035017]}}, {"type": "Feature", "properties": {"norad_id": 66912, "name": "1998-067XY", "group": "stations", "lat": 39.46415100005302, "lon": 160.0938608546512, "alt_km": 409.5646616998838, "timestamp": "2025-12-17T09:00:15.913187+00:00", "meta": {"OBJECT_NAME": "1998-067XY", "OBJECT_ID": "1998-067XY", "EPOCH": "2025-12-16T15:46:04.337760", "MEAN_MOTION": 15.51521639, "ECCENTRICITY": 0.00042238, "INCLINATION": 51.6299, "RA_OF_ASC_NODE": 122.9476, "ARG_OF_PERICENTER": 244.4597, "MEAN_ANOMALY": 115.5956, "EPHEMERIS_TYPE": 0, "CLASSIFICATION_TYPE": "U", "NORAD_CAT_ID": 66912, "ELEMENT_SET_NO": 999, "REV_AT_EPOCH": 221, "BSTAR": 0.00074796807, "MEAN_MOTION_DOT": 0.00044864, "MEAN_MOTION_DDOT": 0}, "tle": {"line1": "1 66912U 98067XY  25350.65699465  .00044864  00000+0  74797-3 0  9991", "line2": "2 66912  51.6299 122.9476 0004223 244.4597 115.5956 15.51521639  2210"}}, "geometry": {"type": "Point", "coordinates": [160.0938608546512, 39.46415100005302]}}]}